{
  "links" : {
    "next" : "https://api.nasa.gov/neo/rest/v1/feed?start_date=2001-02-23&end_date=2001-02-23&detailed=true&api_key=t0TVs3DtDT2H8Oy2Zy8m2eVrNsAVKAexjcZXUckd",
    "prev" : "https://api.nasa.gov/neo/rest/v1/feed?start_date=2001-02-21&end_date=2001-02-21&detailed=true&api_key=t0TVs3DtDT2H8Oy2Zy8m2eVrNsAVKAexjcZXUckd",
    "self" : "https://api.nasa.gov/neo/rest/v1/feed?start_date=2001-02-22&end_date=2001-02-22&detailed=true&api_key=t0TVs3DtDT2H8Oy2Zy8m2eVrNsAVKAexjcZXUckd"
  },
  "element_count" : 5,
  "near_earth_objects" : {
    "2001-02-22" : [ {
      "links" : {
        "self" : "https://api.nasa.gov/neo/rest/v1/neo/3395989?api_key=t0TVs3DtDT2H8Oy2Zy8m2eVrNsAVKAexjcZXUckd"
      },
      "neo_reference_id" : "3395989",
      "name" : "(2007 WB5)",
      "nasa_jpl_url" : "http://ssd.jpl.nasa.gov/sbdb.cgi?sstr=3395989",
      "absolute_magnitude_h" : 19.1,
      "estimated_diameter" : {
        "kilometers" : {
          "estimated_diameter_min" : 0.4023045798,
          "estimated_diameter_max" : 0.8995803882
        },
        "meters" : {
          "estimated_diameter_min" : 402.3045798343,
          "estimated_diameter_max" : 899.5803881691
        },
        "miles" : {
          "estimated_diameter_min" : 0.2499803991,
          "estimated_diameter_max" : 0.5589731654
        },
        "feet" : {
          "estimated_diameter_min" : 1319.8969577037,
          "estimated_diameter_max" : 2951.3793207207
        }
      },
      "is_potentially_hazardous_asteroid" : false,
      "close_approach_data" : [ {
        "close_approach_date" : "2001-02-22",
        "epoch_date_close_approach" : 982828800000,
        "relative_velocity" : {
          "kilometers_per_second" : "19.6205430259",
          "kilometers_per_hour" : "70633.954893258",
          "miles_per_hour" : "43889.1926946469"
        },
        "miss_distance" : {
          "astronomical" : "0.4315915884",
          "lunar" : "167.8891296387",
          "kilometers" : "64565184",
          "miles" : "40118944"
        },
        "orbiting_body" : "Earth"
      } ],
      "orbital_data" : {
        "orbit_id" : "21",
        "orbit_determination_date" : "2017-04-06 09:05:01",
        "orbit_uncertainty" : "1",
        "minimum_orbit_intersection" : ".282209",
        "jupiter_tisserand_invariant" : "3.753",
        "epoch_osculation" : "2458000.5",
        "eccentricity" : ".676346463538954",
        "semi_major_axis" : "1.769181017632391",
        "inclination" : "18.9700342671062",
        "ascending_node_longitude" : "38.75584468467895",
        "orbital_period" : "859.5216756798582",
        "perihelion_distance" : ".5726016929964755",
        "perihelion_argument" : "153.3790272974865",
        "aphelion_distance" : "2.965760342268306",
        "perihelion_time" : "2457995.584337743666",
        "mean_anomaly" : "2.058864205932127",
        "mean_motion" : ".4188376048983871",
        "equinox" : "J2000"
      }
    }, {
      "links" : {
        "self" : "https://api.nasa.gov/neo/rest/v1/neo/3746217?api_key=t0TVs3DtDT2H8Oy2Zy8m2eVrNsAVKAexjcZXUckd"
      },
      "neo_reference_id" : "3746217",
      "name" : "(2016 EE85)",
      "nasa_jpl_url" : "http://ssd.jpl.nasa.gov/sbdb.cgi?sstr=3746217",
      "absolute_magnitude_h" : 22.9,
      "estimated_diameter" : {
        "kilometers" : {
          "estimated_diameter_min" : 0.0699125232,
          "estimated_diameter_max" : 0.1563291544
        },
        "meters" : {
          "estimated_diameter_min" : 69.9125232246,
          "estimated_diameter_max" : 156.3291544087
        },
        "miles" : {
          "estimated_diameter_min" : 0.0434416145,
          "estimated_diameter_max" : 0.097138403
        },
        "feet" : {
          "estimated_diameter_min" : 229.3718026961,
          "estimated_diameter_max" : 512.8909429502
        }
      },
      "is_potentially_hazardous_asteroid" : false,
      "close_approach_data" : [ {
        "close_approach_date" : "2001-02-22",
        "epoch_date_close_approach" : 982828800000,
        "relative_velocity" : {
          "kilometers_per_second" : "8.7494352944",
          "kilometers_per_hour" : "31497.9670599144",
          "miles_per_hour" : "19571.6118100896"
        },
        "miss_distance" : {
          "astronomical" : "0.1651872796",
          "lunar" : "64.257850647",
          "kilometers" : "24711666",
          "miles" : "15355117"
        },
        "orbiting_body" : "Earth"
      } ],
      "orbital_data" : {
        "orbit_id" : "10",
        "orbit_determination_date" : "2017-05-25 06:19:36",
        "orbit_uncertainty" : "3",
        "minimum_orbit_intersection" : ".161382",
        "jupiter_tisserand_invariant" : "6.246",
        "epoch_osculation" : "2458000.5",
        "eccentricity" : ".2881488014357247",
        "semi_major_axis" : ".9556872988165097",
        "inclination" : "12.39025112343683",
        "ascending_node_longitude" : "8.10286858545086",
        "orbital_period" : "341.2495978211014",
        "perihelion_distance" : ".6803071491151871",
        "perihelion_argument" : "12.25256521137254",
        "aphelion_distance" : "1.231067448517832",
        "perihelion_time" : "2458002.871376789960",
        "mean_anomaly" : "357.4983248336804",
        "mean_motion" : "1.05494629824803",
        "equinox" : "J2000"
      }
    } ]
  }
}